[{"OBJECT_NAME":"KUIPER-00187","OBJECT_ID":"2025-301J","EPOCH":"2026-03-09T23:31:50.478240","MEAN_MOTION":14.79912825,"ECCENTRICITY":6.188e-5,"INCLINATION":51.9028,"RA_OF_ASC_NODE":79.3379,"ARG_OF_PERICENTER":81.4352,"MEAN_ANOMALY":278.6681,"EPHEMERIS_TYPE":0,"CLASSIFICATION_TYPE":"U","NORAD_CAT_ID":67141,"ELEMENT_SET_NO":999,"REV_AT_EPOCH":1356,"BSTAR":0.00060978293,"MEAN_MOTION_DOT":4.428e-5,"MEAN_MOTION_DDOT":0},{"OBJECT_NAME":"SL-14 R\/B","OBJECT_ID":"1990-010B","EPOCH":"2026-03-09T14:52:00.601824","MEAN_MOTION":14.83568711,"ECCENTRICITY":0.0018538,"INCLINATION":82.4987,"RA_OF_ASC_NODE":267.4549,"ARG_OF_PERICENTER":302.6174,"MEAN_ANOMALY":57.3252,"EPHEMERIS_TYPE":0,"CLASSIFICATION_TYPE":"U","NORAD_CAT_ID":20466,"ELEMENT_SET_NO":999,"REV_AT_EPOCH":92847,"BSTAR":6.0041e-5,"MEAN_MOTION_DOT":5.19e-6,"MEAN_MOTION_DDOT":0}]
